CTC1_L_00359016-03
1 56304U 23526NB  26070.40835648  .00000000  00000+0  00000-0 0  9998
2 56304  90.0000 180.0000 0000000   0.0000   0.0000 13.72670257    19
CTC1_L_00359016-04
1 56305U 26578LV  26070.40835648  .00000000  00000+0  00000-0 0  9999
2 56305  90.0000 180.0000 0000000   0.0000  90.0000 13.72670257    19
CTC1_L_00359017-01
1 56306U 22468RF  26070.40835648  .00000000  00000+0  00000-0 0  9994
2 56306  90.0000 192.0000 0000000   0.0000 192.0000 13.72670257    16
CTC1_L_00359017-02
1 56307U 23299IA  26070.40835648  .00000000  00000+0  00000-0 0  9998
2 56307  90.0000 192.0000 0000000   0.0000 282.0000 13.72670257    17
CTC1_L_00359017-03
1 56308U 24567GD  26070.40835648  .00000000  00000+0  00000-0 0  9998
2 56308  90.0000 192.0000 0000000   0.0000  12.0000 13.72670257    19
CTC1_L_00359017-04
1 56309U 26236AS  26070.40835648  .00000000  00000+0  00000-0 0  9994
2 56309  90.0000 192.0000 0000000   0.0000 102.0000 13.72670257    10
CTC1_L_00359018-01
1 56310U 25447XX  26070.40835648  .00000000  00000+0  00000-0 0  9999
2 56310  90.0000 204.0000 0000000   0.0000 204.0000 13.72670257    19
CTC1_L_00359018-02
1 56311U 24499BH  26070.40835648  .00000000  00000+0  00000-0 0  9996
2 56311  90.0000 204.0000 0000000   0.0000 294.0000 13.72670257    19
CTC1_L_00359018-03
1 56312U 22003VD  26070.40835648  .00000000  00000+0  00000-0 0  9996
2 56312  90.0000 204.0000 0000000   0.0000  24.0000 13.72670257    11
CTC1_L_00359018-04
1 56313U 26493GN  26070.40835648  .00000000  00000+0  00000-0 0  9994
2 56313  90.0000 204.0000 0000000   0.0000 114.0000 13.72670257    12
CTC1_L_00359019-01
1 56314U 26692ZO  26070.40835648  .00000000  00000+0  00000-0 0  9996
2 56314  90.0000 216.0000 0000000   0.0000 216.0000 13.72670257    19
CTC1_L_00359019-02
1 56315U 25006RN  26070.40835648  .00000000  00000+0  00000-0 0  9995
2 56315  90.0000 216.0000 0000000   0.0000 306.0000 13.72670257    10
CTC1_L_00359019-03
1 56316U 23364SH  26070.40835648  .00000000  00000+0  00000-0 0  9991
2 56316  90.0000 216.0000 0000000   0.0000  36.0000 13.72670257    11
CTC1_L_00359019-04
1 56317U 26513KI  26070.40835648  .00000000  00000+0  00000-0 0  9991
2 56317  90.0000 216.0000 0000000   0.0000 126.0000 13.72670257    12
CTC1_L_00359020-01
1 56318U 24316ZV  26070.40835648  .00000000  00000+0  00000-0 0  9991
2 56318  90.0000 228.0000 0000000   0.0000 228.0000 13.72670257    19
CTC1_L_00359020-02
1 56319U 26699PW  26070.40835648  .00000000  00000+0  00000-0 0  9998
2 56319  90.0000 228.0000 0000000   0.0000 318.0000 13.72670257    10
CTC1_L_00359020-03
1 56320U 25706BU  26070.40835648  .00000000  00000+0  00000-0 0  9998
2 56320  90.0000 228.0000 0000000   0.0000  48.0000 13.72670257    12
CTC1_L_00359020-04
1 56321U 25554SB  26070.40835648  .00000000  00000+0  00000-0 0  9990
2 56321  90.0000 228.0000 0000000   0.0000 138.0000 13.72670257    13
CTC1_L_00359021-01
1 56322U 25640TU  26070.40835648  .00000000  00000+0  00000-0 0  9997
2 56322  90.0000 240.0000 0000000   0.0000 240.0000 13.72670257    12
CTC1_L_00359021-02
1 56323U 25625WQ  26070.40835648  .00000000  00000+0  00000-0 0  9991
2 56323  90.0000 240.0000 0000000   0.0000 330.0000 13.72670257    13
CTC1_L_00359021-03
1 56324U 24532NT  26070.40835648  .00000000  00000+0  00000-0 0  9998
2 56324  90.0000 240.0000 0000000   0.0000  60.0000 13.72670257    14
CTC1_L_00359021-04
1 56325U 25588Y   26070.40835648  .00000000  00000+0  00000-0 0  9991
2 56325  90.0000 240.0000 0000000   0.0000 150.0000 13.72670257    15
CTC1_L_00359022-01
1 56326U 22605TK  26070.40835648  .00000000  00000+0  00000-0 0  9999
2 56326  90.0000 252.0000 0000000   0.0000 252.0000 13.72670257    12
CTC1_L_00359022-02
1 56327U 24691GX  26070.40835648  .00000000  00000+0  00000-0 0  9997
2 56327  90.0000 252.0000 0000000   0.0000 342.0000 13.72670257    13
CTC1_L_00359022-03
1 56328U 24549AK  26070.40835648  .00000000  00000+0  00000-0 0  9990
2 56328  90.0000 252.0000 0000000   0.0000  72.0000 13.72670257    14
CTC1_L_00359022-04
1 56329U 24771EX  26070.40835648  .00000000  00000+0  00000-0 0  9998
2 56329  90.0000 252.0000 0000000   0.0000 162.0000 13.72670257    15
CTC1_L_00359023-01
1 56330U 26271UV  26070.40835648  .00000000  00000+0  00000-0 0  9997
2 56330  90.0000 264.0000 0000000   0.0000 264.0000 13.72670257    13
CTC1_L_00359023-02
1 56331U 22435AZ  26070.40835648  .00000000  00000+0  00000-0 0  9996
2 56331  90.0000 264.0000 0000000   0.0000 354.0000 13.72670257    14
CTC1_L_00359023-03
1 56332U 26541D   26070.40835648  .00000000  00000+0  00000-0 0  9999
2 56332  90.0000 264.0000 0000000   0.0000  84.0000 13.72670257    15
CTC1_L_00359023-04
1 56333U 25665Q   26070.40835648  .00000000  00000+0  00000-0 0  9996
2 56333  90.0000 264.0000 0000000   0.0000 174.0000 13.72670257    16
CTC1_L_00359024-01
1 56334U 26501KC  26070.40835648  .00000000  00000+0  00000-0 0  9997
2 56334  90.0000 276.0000 0000000   0.0000 276.0000 13.72670257    13
CTC1_L_00359024-02
1 56335U 23377AZ  26070.40835648  .00000000  00000+0  00000-0 0  9996
2 56335  90.0000 276.0000 0000000   0.0000   6.0000 13.72670257    15
CTC1_L_00359024-03
1 56336U 22509FY  26070.40835648  .00000000  00000+0  00000-0 0  9993
2 56336  90.0000 276.0000 0000000   0.0000  96.0000 13.72670257    15
CTC1_L_00359024-04
1 56337U 25122KE  26070.40835648  .00000000  00000+0  00000-0 0  9998
2 56337  90.0000 276.0000 0000000   0.0000 186.0000 13.72670257    16
CTC1_L_00359025-01
1 56338U 23209IQ  26070.40835648  .00000000  00000+0  00000-0 0  9993
2 56338  90.0000 288.0000 0000000   0.0000 288.0000 13.72670257    13
CTC1_L_00359025-02
1 56339U 25653MW  26070.40835648  .00000000  00000+0  00000-0 0  9999
2 56339  90.0000 288.0000 0000000   0.0000  18.0000 13.72670257    15
CTC1_L_00359025-03
1 56340U 24521A   26070.40835648  .00000000  00000+0  00000-0 0  9994
2 56340  90.0000 288.0000 0000000   0.0000 108.0000 13.72670257    17
CTC1_L_00359025-04
1 56341U 22801LS  26070.40835648  .00000000  00000+0  00000-0 0  9994
2 56341  90.0000 288.0000 0000000   0.0000 198.0000 13.72670257    17
CTC1_L_00359026-01
1 56342U 22787JI  26070.40835648  .00000000  00000+0  00000-0 0  9998
2 56342  90.0000 300.0000 0000000   0.0000 300.0000 13.72670257    18
CTC1_L_00359026-02
1 56343U 22179UN  26070.40835648  .00000000  00000+0  00000-0 0  9994
2 56343  90.0000 300.0000 0000000   0.0000  30.0000 13.72670257    19
CTC1_L_00359026-03
1 56344U 24641VV  26070.40835648  .00000000  00000+0  00000-0 0  9991
2 56344  90.0000 300.0000 0000000   0.0000 120.0000 13.72670257    10
CTC1_L_00359026-04
1 56345U 22374FJ  26070.40835648  .00000000  00000+0  00000-0 0  9993
2 56345  90.0000 300.0000 0000000   0.0000 210.0000 13.72670257    11
CTC1_L_00359027-01
1 56346U 25236TV  26070.40835648  .00000000  00000+0  00000-0 0  9994
2 56346  90.0000 312.0000 0000000   0.0000 312.0000 13.72670257    18
CTC1_L_00359027-02
1 56347U 22532EV  26070.40835648  .00000000  00000+0  00000-0 0  9991
2 56347  90.0000 312.0000 0000000   0.0000  42.0000 13.72670257    19
CTC1_L_00359027-03
1 56348U 26154WD  26070.40835648  .00000000  00000+0  00000-0 0  9996
2 56348  90.0000 312.0000 0000000   0.0000 132.0000 13.72670257    10
CTC1_L_00359027-04
1 56349U 24513JT  26070.40835648  .00000000  00000+0  00000-0 0  9994
2 56349  90.0000 312.0000 0000000   0.0000 222.0000 13.72670257    11
CTC1_L_00359028-01
1 56350U 24169HM  26070.40835648  .00000000  00000+0  00000-0 0  9993
2 56350  90.0000 324.0000 0000000   0.0000 324.0000 13.72670257    19
CTC1_L_00359028-02
1 56351U 23392EV  26070.40835648  .00000000  00000+0  00000-0 0  9991
2 56351  90.0000 324.0000 0000000   0.0000  54.0000 13.72670257    10
CTC1_L_00359028-03
1 56352U 22464RL  26070.40835648  .00000000  00000+0  00000-0 0  9991
2 56352  90.0000 324.0000 0000000   0.0000 144.0000 13.72670257    11
CTC1_L_00359028-04
1 56353U 25388LG  26070.40835648  .00000000  00000+0  00000-0 0  9990
2 56353  90.0000 324.0000 0000000   0.0000 234.0000 13.72670257    12
CTC1_L_00359029-01
1 56354U 23849EV  26070.40835648  .00000000  00000+0  00000-0 0  9991
2 56354  90.0000 336.0000 0000000   0.0000 336.0000 13.72670257    19
CTC1_L_00359029-02
1 56355U 25900BR  26070.40835648  .00000000  00000+0  00000-0 0  9992
2 56355  90.0000 336.0000 0000000   0.0000  66.0000 13.72670257    10
CTC1_L_00359029-03
1 56356U 22694YL  26070.40835648  .00000000  00000+0  00000-0 0  9990
2 56356  90.0000 336.0000 0000000   0.0000 156.0000 13.72670257    11
CTC1_L_00359029-04
1 56357U 24186FO  26070.40835648  .00000000  00000+0  00000-0 0  9999
2 56357  90.0000 336.0000 0000000   0.0000 246.0000 13.72670257    12
CTC1_L_00359030-01
1 56358U 25854PX  26070.40835648  .00000000  00000+0  00000-0 0  9993
2 56358  90.0000 348.0000 0000000   0.0000 348.0000 13.72670257    19
CTC1_L_00359030-02
1 56359U 26759AN  26070.40835648  .00000000  00000+0  00000-0 0  9999
2 56359  90.0000 348.0000 0000000   0.0000  78.0000 13.72670257    10
CTC1_L_00359030-03
1 56360U 25976WH  26070.40835648  .00000000  00000+0  00000-0 0  9991
2 56360  90.0000 348.0000 0000000   0.0000 168.0000 13.72670257    12
CTC1_L_00359030-04
1 56361U 26630EQ  26070.40835648  .00000000  00000+0  00000-0 0  9990
2 56361  90.0000 348.0000 0000000   0.0000 258.0000 13.72670257    13
